{
  "type": "FeatureCollection",
  "features": [
    {
      "type": "Feature",
      "properties": {
        "norad_id": 28890,
        "name": "BEIJING 1",
        "group": "dmc",
        "lat": -34.14207176043646,
        "lon": 128.97437940579547,
        "alt_km": 698.0336198721579,
        "timestamp": "2025-12-21T18:54:58.159895+00:00",
        "meta_object_name": "BEIJING 1",
        "meta_object_id": "2005-043A",
        "meta_epoch": "2025-12-21T14:09:03.543840",
        "meta_mean_motion": 14.63373614,
        "meta_eccentricity": 0.001574,
        "meta_inclination": 98.266,
        "meta_ra_of_asc_node": 123.1179,
        "meta_arg_of_pericenter": 115.1952,
        "meta_mean_anomaly": 245.0884,
        "meta_ephemeris_type": 0,
        "meta_classification_type": "U",
        "meta_norad_cat_id": 28890,
        "meta_element_set_no": 999,
        "meta_rev_at_epoch": 7467,
        "meta_bstar": 6.8298607e-05,
        "meta_mean_motion_dot": 3.05e-06,
        "meta_mean_motion_ddot": 0,
        "tle_line1": "1 28890U 05043A   25355.58962435  .00000305  00000+0  68299-4 0  9996",
        "tle_line2": "2 28890  98.2660 123.1179 0015740 115.1952 245.0884 14.63373614 74678"
      },
      "geometry": {
        "type": "Point",
        "coordinates": [
          128.97437940579547,
          -34.14207176043646
        ]
      }
    },
    {
      "type": "Feature",
      "properties": {
        "norad_id": 33320,
        "name": "HUANJING 1A (HJ-1A)",
        "group": "dmc",
        "lat": -73.97848343593068,
        "lon": 11.633133236141365,
        "alt_km": 623.867772975661,
        "timestamp": "2025-12-21T18:54:58.159919+00:00",
        "meta_object_name": "HUANJING 1A (HJ-1A)",
        "meta_object_id": "2008-041A",
        "meta_epoch": "2025-12-21T14:24:01.026432",
        "meta_mean_motion": 14.83419753,
        "meta_eccentricity": 0.00194861,
        "meta_inclination": 97.6538,
        "meta_ra_of_asc_node": 343.5284,
        "meta_arg_of_pericenter": 6.4177,
        "meta_mean_anomaly": 353.7283,
        "meta_ephemeris_type": 0,
        "meta_classification_type": "U",
        "meta_norad_cat_id": 33320,
        "meta_element_set_no": 999,
        "meta_rev_at_epoch": 93207,
        "meta_bstar": 0.00016380609,
        "meta_mean_motion_dot": 1.298e-05,
        "meta_mean_motion_ddot": 0,
        "tle_line1": "1 33320U 08041A   25355.60001188  .00001298  00000+0  16381-3 0  9999",
        "tle_line2": "2 33320  97.6538 343.5284 0019486   6.4177 353.7283 14.83419753932070"
      },
      "geometry": {
        "type": "Point",
        "coordinates": [
          11.633133236141365,
          -73.97848343593068
        ]
      }
    },
    {
      "type": "Feature",
      "properties": {
        "norad_id": 33321,
        "name": "HUANJING 1B (HJ-1B)",
        "group": "dmc",
        "lat": 52.09606087803371,
        "lon": 177.30905890218293,
        "alt_km": 610.8530576169805,
        "timestamp": "2025-12-21T18:54:58.159934+00:00",
        "meta_object_name": "HUANJING 1B (HJ-1B)",
        "meta_object_id": "2008-041B",
        "meta_epoch": "2025-12-21T15:06:32.251680",
        "meta_mean_motion": 14.82843064,
        "meta_eccentricity": 0.00380074,
        "meta_inclination": 97.6397,
        "meta_ra_of_asc_node": 347.2304,
        "meta_arg_of_pericenter": 47.6189,
        "meta_mean_anomaly": 312.8231,
        "meta_ephemeris_type": 0,
        "meta_classification_type": "U",
        "meta_norad_cat_id": 33321,
        "meta_element_set_no": 999,
        "meta_rev_at_epoch": 93209,
        "meta_bstar": 0.00012289125,
        "meta_mean_motion_dot": 9.55e-06,
        "meta_mean_motion_ddot": 0,
        "tle_line1": "1 33321U 08041B   25355.62953995  .00000955  00000+0  12289-3 0  9996",
        "tle_line2": "2 33321  97.6397 347.2304 0038007  47.6189 312.8231 14.82843064932094"
      },
      "geometry": {
        "type": "Point",
        "coordinates": [
          177.30905890218293,
          52.09606087803371
        ]
      }
    },
    {
      "type": "Feature",
      "properties": {
        "norad_id": 33446,
        "name": "YAOGAN-4",
        "group": "dmc",
        "lat": 33.79234719905641,
        "lon": -79.54648224631269,
        "alt_km": 620.6805489363651,
        "timestamp": "2025-12-21T18:54:58.159950+00:00",
        "meta_object_name": "YAOGAN-4",
        "meta_object_id": "2008-061A",
        "meta_epoch": "2025-12-21T09:02:40.964928",
        "meta_mean_motion": 14.8270568,
        "meta_eccentricity": 0.00130663,
        "meta_inclination": 97.9195,
        "meta_ra_of_asc_node": 285.3917,
        "meta_arg_of_pericenter": 292.927,
        "meta_mean_anomaly": 67.0564,
        "meta_ephemeris_type": 0,
        "meta_classification_type": "U",
        "meta_norad_cat_id": 33446,
        "meta_element_set_no": 999,
        "meta_rev_at_epoch": 91931,
        "meta_bstar": 0.00013803316,
        "meta_mean_motion_dot": 1.061e-05,
        "meta_mean_motion_ddot": 0,
        "tle_line1": "1 33446U 08061A   25355.37686302  .00001061  00000+0  13803-3 0  9995",
        "tle_line2": "2 33446  97.9195 285.3917 0013066 292.9270  67.0564 14.82705680919316"
      },
      "geometry": {
        "type": "Point",
        "coordinates": [
          -79.54648224631269,
          33.79234719905641
        ]
      }
    },
    {
      "type": "Feature",
      "properties": {
        "norad_id": 35681,
        "name": "DEIMOS-1",
        "group": "dmc",
        "lat": -81.99833011275723,
        "lon": -129.38335779515353,
        "alt_km": 654.2352342180002,
        "timestamp": "2025-12-21T18:54:58.159961+00:00",
        "meta_object_name": "DEIMOS-1",
        "meta_object_id": "2009-041A",
        "meta_epoch": "2025-12-21T14:25:47.187840",
        "meta_mean_motion": 14.74963646,
        "meta_eccentricity": 0.00025714,
        "meta_inclination": 97.7145,
        "meta_ra_of_asc_node": 155.7918,
        "meta_arg_of_pericenter": 65.5267,
        "meta_mean_anomaly": 294.6211,
        "meta_ephemeris_type": 0,
        "meta_classification_type": "U",
        "meta_norad_cat_id": 35681,
        "meta_element_set_no": 999,
        "meta_rev_at_epoch": 88070,
        "meta_bstar": 3.7212553e-05,
        "meta_mean_motion_dot": 2.03e-06,
        "meta_mean_motion_ddot": 0,
        "tle_line1": "1 35681U 09041A   25355.60124060  .00000203  00000+0  37213-4 0  9990",
        "tle_line2": "2 35681  97.7145 155.7918 0002571  65.5267 294.6211 14.74963646880708"
      },
      "geometry": {
        "type": "Point",
        "coordinates": [
          -129.38335779515353,
          -81.99833011275723
        ]
      }
    },
    {
      "type": "Feature",
      "properties": {
        "norad_id": 35683,
        "name": "UK-DMC 2",
        "group": "dmc",
        "lat": -50.269752035972026,
        "lon": 139.99929009702691,
        "alt_km": 650.917511565197,
        "timestamp": "2025-12-21T18:54:58.159972+00:00",
        "meta_object_name": "UK-DMC 2",
        "meta_object_id": "2009-041C",
        "meta_epoch": "2025-12-21T14:15:51.757056",
        "meta_mean_motion": 14.75637867,
        "meta_eccentricity": 0.0001541,
        "meta_inclination": 97.8566,
        "meta_ra_of_asc_node": 130.2474,
        "meta_arg_of_pericenter": 93.3132,
        "meta_mean_anomaly": 266.8254,
        "meta_ephemeris_type": 0,
        "meta_classification_type": "U",
        "meta_norad_cat_id": 35683,
        "meta_element_set_no": 999,
        "meta_rev_at_epoch": 88037,
        "meta_bstar": 8.1529429e-05,
        "meta_mean_motion_dot": 5.07e-06,
        "meta_mean_motion_ddot": 0,
        "tle_line1": "1 35683U 09041C   25355.59434904  .00000507  00000+0  81529-4 0  9997",
        "tle_line2": "2 35683  97.8566 130.2474 0001541  93.3132 266.8254 14.75637867880374"
      },
      "geometry": {
        "type": "Point",
        "coordinates": [
          139.99929009702691,
          -50.269752035972026
        ]
      }
    },
    {
      "type": "Feature",
      "properties": {
        "norad_id": 40715,
        "name": "DMC3-FM1",
        "group": "dmc",
        "lat": -42.293623100697246,
        "lon": -130.3087318960597,
        "alt_km": 616.3979785920037,
        "timestamp": "2025-12-21T18:54:58.159982+00:00",
        "meta_object_name": "DMC3-FM1",
        "meta_object_id": "2015-032A",
        "meta_epoch": "2025-12-21T14:15:29.693952",
        "meta_mean_motion": 14.85454271,
        "meta_eccentricity": 0.00041247,
        "meta_inclination": 97.6688,
        "meta_ra_of_asc_node": 222.4634,
        "meta_arg_of_pericenter": 284.6216,
        "meta_mean_anomaly": 75.4542,
        "meta_ephemeris_type": 0,
        "meta_classification_type": "U",
        "meta_norad_cat_id": 40715,
        "meta_element_set_no": 999,
        "meta_rev_at_epoch": 56354,
        "meta_bstar": 0.00010001402,
        "meta_mean_motion_dot": 8.11e-06,
        "meta_mean_motion_ddot": 0,
        "tle_line1": "1 40715U 15032A   25355.59409368  .00000811  00000+0  10001-3 0  9996",
        "tle_line2": "2 40715  97.6688 222.4634 0004124 284.6216  75.4542 14.85454271563547"
      },
      "geometry": {
        "type": "Point",
        "coordinates": [
          -130.3087318960597,
          -42.293623100697246
        ]
      }
    },
    {
      "type": "Feature",
      "properties": {
        "norad_id": 40716,
        "name": "DMC3-FM2",
        "group": "dmc",
        "lat": -17.051053468770125,
        "lon": 41.73048326837901,
        "alt_km": 617.3387553887815,
        "timestamp": "2025-12-21T18:54:58.159992+00:00",
        "meta_object_name": "DMC3-FM2",
        "meta_object_id": "2015-032B",
        "meta_epoch": "2025-12-21T14:47:52.232064",
        "meta_mean_motion": 14.85457257,
        "meta_eccentricity": 0.00046691,
        "meta_inclination": 97.6747,
        "meta_ra_of_asc_node": 223.9354,
        "meta_arg_of_pericenter": 291.7109,
        "meta_mean_anomaly": 68.3609,
        "meta_ephemeris_type": 0,
        "meta_classification_type": "U",
        "meta_norad_cat_id": 40716,
        "meta_element_set_no": 999,
        "meta_rev_at_epoch": 56354,
        "meta_bstar": 9.3439075e-05,
        "meta_mean_motion_dot": 7.54e-06,
        "meta_mean_motion_ddot": 0,
        "tle_line1": "1 40716U 15032B   25355.61657676  .00000754  00000+0  93439-4 0  9990",
        "tle_line2": "2 40716  97.6747 223.9354 0004669 291.7109  68.3609 14.85457257563545"
      },
      "geometry": {
        "type": "Point",
        "coordinates": [
          41.73048326837901,
          -17.051053468770125
        ]
      }
    },
    {
      "type": "Feature",
      "properties": {
        "norad_id": 40717,
        "name": "DMC3-FM3",
        "group": "dmc",
        "lat": 78.31433447676643,
        "lon": -174.98556725666717,
        "alt_km": 607.3405928634193,
        "timestamp": "2025-12-21T18:54:58.160002+00:00",
        "meta_object_name": "DMC3-FM3",
        "meta_object_id": "2015-032C",
        "meta_epoch": "2025-12-21T15:19:07.206240",
        "meta_mean_motion": 14.85439842,
        "meta_eccentricity": 0.00040956,
        "meta_inclination": 97.6801,
        "meta_ra_of_asc_node": 225.5954,
        "meta_arg_of_pericenter": 293.1252,
        "meta_mean_anomaly": 66.9532,
        "meta_ephemeris_type": 0,
        "meta_classification_type": "U",
        "meta_norad_cat_id": 40717,
        "meta_element_set_no": 999,
        "meta_rev_at_epoch": 56355,
        "meta_bstar": -1.7918021e-05,
        "meta_mean_motion_dot": -2.06e-06,
        "meta_mean_motion_ddot": 0,
        "tle_line1": "1 40717U 15032C   25355.63827785 -.00000206  00000+0 -17918-4 0  9995",
        "tle_line2": "2 40717  97.6801 225.5954 0004095 293.1252  66.9532 14.85439842563559"
      },
      "geometry": {
        "type": "Point",
        "coordinates": [
          -174.98556725666717,
          78.31433447676643
        ]
      }
    }
  ]
}